{
  "norad_id": 64026,
  "name": "STARLINK-33992",
  "history": [
    {
      "epoch": "2026-03-28T08:36:38.630016Z",
      "apogee_km": 574.2720839950007,
      "perigee_km": 569.795062118661,
      "latitude_deg": -4.5871538665588495e-05,
      "longitude_deg": 112.64395914353062,
      "height_km": 574.5778268052278,
      "semi_major_axis_km": 6950.170573056831,
      "eccentricity": 0.00032208,
      "inclination_deg": 70.0021,
      "raan_deg": 67.5853,
      "arg_perigee_deg": 267.0191,
      "mean_anomaly_deg": 93.0599,
      "mean_motion_rev_day": 14.98337217
    },
    {
      "epoch": "2026-03-29T05:26:23.097408Z",
      "apogee_km": 574.2857973764385,
      "perigee_km": 569.7445679402899,
      "latitude_deg": -6.934153155344574e-05,
      "longitude_deg": 157.16445231099024,
      "height_km": 574.4827439603629,
      "semi_major_axis_km": 6950.152182658364,
      "eccentricity": 0.0003267,
      "inclination_deg": 70.002,
      "raan_deg": 65.3965,
      "arg_perigee_deg": 268.9987,
      "mean_anomaly_deg": 91.0797,
      "mean_motion_rev_day": 14.98343164
    },
    {
      "epoch": "2026-03-30T02:16:07.974336Z",
      "apogee_km": 574.4943562298449,
      "perigee_km": 569.5722456227286,
      "latitude_deg": -3.1443792967746435e-05,
      "longitude_deg": -158.3155427452023,
      "height_km": 574.5041744762333,
      "semi_major_axis_km": 6950.1703009262865,
      "eccentricity": 0.0003541,
      "inclination_deg": 70.0014,
      "raan_deg": 63.2089,
      "arg_perigee_deg": 269.0038,
      "mean_anomaly_deg": 91.0715,
      "mean_motion_rev_day": 14.98337305
    },
    {
      "epoch": "2026-03-30T05:28:24.077280Z",
      "apogee_km": 574.3494420114721,
      "perigee_km": 569.7106225274538,
      "latitude_deg": -2.2437449624795182e-05,
      "longitude_deg": 153.14946203786675,
      "height_km": 574.6678184173247,
      "semi_major_axis_km": 6950.167032269463,
      "eccentricity": 0.00033372,
      "inclination_deg": 70.0021,
      "raan_deg": 62.8726,
      "arg_perigee_deg": 264.8096,
      "mean_anomaly_deg": 95.2682,
      "mean_motion_rev_day": 14.98338362
    },
    {
      "epoch": "2026-03-30T08:40:40.145664Z",
      "apogee_km": 574.4218746460037,
      "perigee_km": 569.6290426145333,
      "latitude_deg": -6.262145926699695e-06,
      "longitude_deg": 104.61351380942412,
      "height_km": 574.6996014691515,
      "semi_major_axis_km": 6950.162458630269,
      "eccentricity": 0.0003448,
      "inclination_deg": 70.0015,
      "raan_deg": 62.5352,
      "arg_perigee_deg": 264.1051,
      "mean_anomaly_deg": 95.9715,
      "mean_motion_rev_day": 14.98339841
    }
  ]
}